{
  "type": "FeatureCollection",
  "crs": {
    "type": "name",
    "properties": {
      "name": "urn:ogc:def:crs:OGC:1.3:CRS84"
    }
  },
  "features": [
    {
      "type": "Feature",
      "properties": {
        "event_id": "TN_BUREVI_2020",
        "name": "Cyclone Burevi 2020 AOI",
        "center_lat": 8.81,
        "center_lon": 78.14,
        "size_deg": 0.15
      },
      "geometry": {
        "type": "Polygon",
        "coordinates": [
          [
            [
              78.065,
              8.735000000000001
            ],
            [
              78.215,
              8.735000000000001
            ],
            [
              78.215,
              8.885
            ],
            [
              78.065,
              8.885
            ],
            [
              78.065,
              8.735000000000001
            ]
          ]
        ]
      }
    }
  ]
}