{
  "type": "FeatureCollection",
  "crs": {
    "type": "name",
    "properties": {
      "name": "urn:ogc:def:crs:OGC:1.3:CRS84"
    }
  },
  "features": [
    {
      "type": "Feature",
      "properties": {
        "event_id": "TN_GAJA_2018",
        "name": "Cyclone Gaja 2018 AOI",
        "center_lat": 10.7656,
        "center_lon": 79.8427,
        "size_deg": 0.15
      },
      "geometry": {
        "type": "Polygon",
        "coordinates": [
          [
            [
              79.76769999999999,
              10.6906
            ],
            [
              79.9177,
              10.6906
            ],
            [
              79.9177,
              10.840599999999998
            ],
            [
              79.76769999999999,
              10.840599999999998
            ],
            [
              79.76769999999999,
              10.6906
            ]
          ]
        ]
      }
    }
  ]
}