{
  "type": "FeatureCollection",
  "crs": {
    "type": "name",
    "properties": {
      "name": "urn:ogc:def:crs:OGC:1.3:CRS84"
    }
  },
  "features": [
    {
      "type": "Feature",
      "properties": {
        "event_id": "TN_MANDOUS_2022",
        "name": "Cyclone Mandous 2022 AOI",
        "center_lat": 12.6205,
        "center_lon": 80.1947,
        "size_deg": 0.15
      },
      "geometry": {
        "type": "Polygon",
        "coordinates": [
          [
            [
              80.1197,
              12.5455
            ],
            [
              80.2697,
              12.5455
            ],
            [
              80.2697,
              12.6955
            ],
            [
              80.1197,
              12.6955
            ],
            [
              80.1197,
              12.5455
            ]
          ]
        ]
      }
    }
  ]
}