{
  "type": "FeatureCollection",
  "crs": {
    "type": "name",
    "properties": {
      "name": "urn:ogc:def:crs:OGC:1.3:CRS84"
    }
  },
  "features": [
    {
      "type": "Feature",
      "properties": {
        "event_id": "TN_NIVAR_2020",
        "name": "Cyclone Nivar 2020 AOI",
        "center_lat": 11.748,
        "center_lon": 79.7714,
        "size_deg": 0.15
      },
      "geometry": {
        "type": "Polygon",
        "coordinates": [
          [
            [
              79.6964,
              11.673
            ],
            [
              79.8464,
              11.673
            ],
            [
              79.8464,
              11.822999999999999
            ],
            [
              79.6964,
              11.822999999999999
            ],
            [
              79.6964,
              11.673
            ]
          ]
        ]
      }
    }
  ]
}