{
  "type": "FeatureCollection",
  "crs": {
    "type": "name",
    "properties": {
      "name": "urn:ogc:def:crs:OGC:1.3:CRS84"
    }
  },
  "features": [
    {
      "type": "Feature",
      "properties": {
        "event_id": "TN_OCKHI_2017",
        "name": "Cyclone Ockhi 2017 AOI",
        "center_lat": 8.09,
        "center_lon": 77.54,
        "size_deg": 0.15
      },
      "geometry": {
        "type": "Polygon",
        "coordinates": [
          [
            [
              77.465,
              8.015
            ],
            [
              77.61500000000001,
              8.015
            ],
            [
              77.61500000000001,
              8.165
            ],
            [
              77.465,
              8.165
            ],
            [
              77.465,
              8.015
            ]
          ]
        ]
      }
    }
  ]
}