{
  "type": "FeatureCollection",
  "crs": {
    "type": "name",
    "properties": {
      "name": "urn:ogc:def:crs:OGC:1.3:CRS84"
    }
  },
  "features": [
    {
      "type": "Feature",
      "properties": {
        "event_id": "TN_SOUTHERN_FLOOD_2023",
        "name": "Southern Districts Floods 2023 AOI",
        "center_lat": 8.73,
        "center_lon": 77.7,
        "size_deg": 0.15
      },
      "geometry": {
        "type": "Polygon",
        "coordinates": [
          [
            [
              77.625,
              8.655000000000001
            ],
            [
              77.775,
              8.655000000000001
            ],
            [
              77.775,
              8.805
            ],
            [
              77.625,
              8.805
            ],
            [
              77.625,
              8.655000000000001
            ]
          ]
        ]
      }
    }
  ]
}