{
  "type": "FeatureCollection",
  "crs": {
    "type": "name",
    "properties": {
      "name": "urn:ogc:def:crs:OGC:1.3:CRS84"
    }
  },
  "features": [
    {
      "type": "Feature",
      "properties": {
        "event_id": "TN_VARDAH_2016",
        "name": "Cyclone Vardah 2016 AOI",
        "center_lat": 13.0827,
        "center_lon": 80.2707,
        "size_deg": 0.15
      },
      "geometry": {
        "type": "Polygon",
        "coordinates": [
          [
            [
              80.1957,
              13.007700000000002
            ],
            [
              80.34570000000001,
              13.007700000000002
            ],
            [
              80.34570000000001,
              13.1577
            ],
            [
              80.1957,
              13.1577
            ],
            [
              80.1957,
              13.007700000000002
            ]
          ]
        ]
      }
    }
  ]
}