{
  "type": "FeatureCollection",
  "metadata": {
    "source": "OpenStreetMap + Copernicus Sentinel-1",
    "source_license": "ODbL (OSM) / Copernicus Open Access Policy",
    "extracted_at": "2026-08-31T18:19:55.425765Z",
    "total_buildings": 9,
    "pre_scene": "S1A_IW_GRDH_1SDV_20201115_PRE",
    "post_scene": "S1A_IW_GRDH_1SDV_20201127_POST",
    "model_sha256": "7124b81a6446e995c61dcba5cca971654f7924f70aaa470dd1ab17644f0e45ef"
  },
  "features": [
    {
      "type": "Feature",
      "id": "osm_way_473808828",
      "properties": {
        "osm_id": 473808828,
        "osm_type": "way",
        "building": "yes",
        "damage_prediction": "DAMAGED",
        "confidence": 0.5727,
        "prediction_margin": 0.3548,
        "entropy": 0.9786,
        "prob_intact": 0.2179,
        "prob_damaged": 0.5727,
        "prob_destroyed": 0.2094,
        "decision_status": "REVIEW",
        "review_status": "REVIEW",
        "domain_shift": "HIGH_SHIFT",
        "domain_shift_score": 3.2731,
        "coverage_ratio": 1.0,
        "pre_product_id": "S1A_IW_GRDH_1SDV_20201115_PRE",
        "post_product_id": "S1A_IW_GRDH_1SDV_20201127_POST",
        "pre_date": "2020-11-15T00:24:12Z",
        "post_date": "2020-11-27T00:24:13Z",
        "temporal_delta_days": 12,
        "model_version": "Phase 7.8 FloodCycloneSiameseResNet34",
        "checkpoint_sha256": "7124b81a6446e995c61dcba5cca971654f7924f70aaa470dd1ab17644f0e45ef",
        "prediction_timestamp": "2026-08-31T18:19:55.425350Z",
        "data_source": "Copernicus Sentinel-1 SAR + OpenStreetMap"
      },
      "geometry": {
        "type": "Polygon",
        "coordinates": [
          [
            [
              79.7656082,
              11.7513339
            ],
            [
              79.7659172,
              11.7511468
            ],
            [
              79.7660412,
              11.751105
            ],
            [
              79.7664314,
              11.7510294
            ],
            [
              79.7664497,
              11.7510811
            ],
            [
              79.7664436,
              11.7511189
            ],
            [
              79.7663786,
              11.7511408
            ],
            [
              79.7660838,
              11.7511965
            ],
            [
              79.7659433,
              11.7512536
            ],
            [
              79.7656535,
              11.7514222
            ],
            [
              79.7656082,
              11.7513339
            ]
          ]
        ]
      }
    },
    {
      "type": "Feature",
      "id": "osm_way_474802325",
      "properties": {
        "osm_id": 474802325,
        "osm_type": "way",
        "building": "yes",
        "damage_prediction": "DAMAGED",
        "confidence": 0.5725,
        "prediction_margin": 0.3546,
        "entropy": 0.9788,
        "prob_intact": 0.2179,
        "prob_damaged": 0.5725,
        "prob_destroyed": 0.2095,
        "decision_status": "REVIEW",
        "review_status": "REVIEW",
        "domain_shift": "HIGH_SHIFT",
        "domain_shift_score": 3.2731,
        "coverage_ratio": 1.0,
        "pre_product_id": "S1A_IW_GRDH_1SDV_20201115_PRE",
        "post_product_id": "S1A_IW_GRDH_1SDV_20201127_POST",
        "pre_date": "2020-11-15T00:24:12Z",
        "post_date": "2020-11-27T00:24:13Z",
        "temporal_delta_days": 12,
        "model_version": "Phase 7.8 FloodCycloneSiameseResNet34",
        "checkpoint_sha256": "7124b81a6446e995c61dcba5cca971654f7924f70aaa470dd1ab17644f0e45ef",
        "prediction_timestamp": "2026-08-31T18:19:55.425402Z",
        "data_source": "Copernicus Sentinel-1 SAR + OpenStreetMap"
      },
      "geometry": {
        "type": "Polygon",
        "coordinates": [
          [
            [
              79.7655893,
              11.7512366
            ],
            [
              79.7656529,
              11.7512033
            ],
            [
              79.7653686,
              11.7506833
            ],
            [
              79.7653049,
              11.7507167
            ],
            [
              79.7655893,
              11.7512366
            ]
          ]
        ]
      }
    },
    {
      "type": "Feature",
      "id": "osm_way_838475000",
      "properties": {
        "osm_id": 838475000,
        "osm_type": "way",
        "building": "yes",
        "damage_prediction": "DAMAGED",
        "confidence": 0.5727,
        "prediction_margin": 0.3547,
        "entropy": 0.9787,
        "prob_intact": 0.218,
        "prob_damaged": 0.5727,
        "prob_destroyed": 0.2094,
        "decision_status": "REVIEW",
        "review_status": "REVIEW",
        "domain_shift": "HIGH_SHIFT",
        "domain_shift_score": 3.272,
        "coverage_ratio": 1.0,
        "pre_product_id": "S1A_IW_GRDH_1SDV_20201115_PRE",
        "post_product_id": "S1A_IW_GRDH_1SDV_20201127_POST",
        "pre_date": "2020-11-15T00:24:12Z",
        "post_date": "2020-11-27T00:24:13Z",
        "temporal_delta_days": 12,
        "model_version": "Phase 7.8 FloodCycloneSiameseResNet34",
        "checkpoint_sha256": "7124b81a6446e995c61dcba5cca971654f7924f70aaa470dd1ab17644f0e45ef",
        "prediction_timestamp": "2026-08-31T18:19:55.425438Z",
        "data_source": "Copernicus Sentinel-1 SAR + OpenStreetMap"
      },
      "geometry": {
        "type": "Polygon",
        "coordinates": [
          [
            [
              79.7656587,
              11.7481633
            ],
            [
              79.7657503,
              11.7481608
            ],
            [
              79.765741,
              11.7478195
            ],
            [
              79.7656493,
              11.7478219
            ],
            [
              79.7656587,
              11.7481633
            ]
          ]
        ]
      }
    },
    {
      "type": "Feature",
      "id": "osm_way_838475006",
      "properties": {
        "osm_id": 838475006,
        "osm_type": "way",
        "building": "yes",
        "damage_prediction": "DAMAGED",
        "confidence": 0.5726,
        "prediction_margin": 0.3546,
        "entropy": 0.9787,
        "prob_intact": 0.218,
        "prob_damaged": 0.5726,
        "prob_destroyed": 0.2094,
        "decision_status": "REVIEW",
        "review_status": "REVIEW",
        "domain_shift": "HIGH_SHIFT",
        "domain_shift_score": 3.2727,
        "coverage_ratio": 1.0,
        "pre_product_id": "S1A_IW_GRDH_1SDV_20201115_PRE",
        "post_product_id": "S1A_IW_GRDH_1SDV_20201127_POST",
        "pre_date": "2020-11-15T00:24:12Z",
        "post_date": "2020-11-27T00:24:13Z",
        "temporal_delta_days": 12,
        "model_version": "Phase 7.8 FloodCycloneSiameseResNet34",
        "checkpoint_sha256": "7124b81a6446e995c61dcba5cca971654f7924f70aaa470dd1ab17644f0e45ef",
        "prediction_timestamp": "2026-08-31T18:19:55.425465Z",
        "data_source": "Copernicus Sentinel-1 SAR + OpenStreetMap"
      },
      "geometry": {
        "type": "Polygon",
        "coordinates": [
          [
            [
              79.7661495,
              11.7482171
            ],
            [
              79.7662309,
              11.7482145
            ],
            [
              79.7662242,
              11.7480149
            ],
            [
              79.7661428,
              11.7480175
            ],
            [
              79.7661495,
              11.7482171
            ]
          ]
        ]
      }
    },
    {
      "type": "Feature",
      "id": "osm_way_838475013",
      "properties": {
        "osm_id": 838475013,
        "osm_type": "way",
        "building": "yes",
        "damage_prediction": "DAMAGED",
        "confidence": 0.5727,
        "prediction_margin": 0.3549,
        "entropy": 0.9786,
        "prob_intact": 0.2179,
        "prob_damaged": 0.5727,
        "prob_destroyed": 0.2094,
        "decision_status": "REVIEW",
        "review_status": "REVIEW",
        "domain_shift": "HIGH_SHIFT",
        "domain_shift_score": 3.2722,
        "coverage_ratio": 1.0,
        "pre_product_id": "S1A_IW_GRDH_1SDV_20201115_PRE",
        "post_product_id": "S1A_IW_GRDH_1SDV_20201127_POST",
        "pre_date": "2020-11-15T00:24:12Z",
        "post_date": "2020-11-27T00:24:13Z",
        "temporal_delta_days": 12,
        "model_version": "Phase 7.8 FloodCycloneSiameseResNet34",
        "checkpoint_sha256": "7124b81a6446e995c61dcba5cca971654f7924f70aaa470dd1ab17644f0e45ef",
        "prediction_timestamp": "2026-08-31T18:19:55.425492Z",
        "data_source": "Copernicus Sentinel-1 SAR + OpenStreetMap"
      },
      "geometry": {
        "type": "Polygon",
        "coordinates": [
          [
            [
              79.7678058,
              11.7485769
            ],
            [
              79.7679245,
              11.7485725
            ],
            [
              79.7679138,
              11.7482954
            ],
            [
              79.7677951,
              11.7482998
            ],
            [
              79.7678058,
              11.7485769
            ]
          ]
        ]
      }
    },
    {
      "type": "Feature",
      "id": "osm_way_838475028",
      "properties": {
        "osm_id": 838475028,
        "osm_type": "way",
        "building": "yes",
        "damage_prediction": "DAMAGED",
        "confidence": 0.5725,
        "prediction_margin": 0.3546,
        "entropy": 0.9788,
        "prob_intact": 0.2179,
        "prob_damaged": 0.5725,
        "prob_destroyed": 0.2095,
        "decision_status": "REVIEW",
        "review_status": "REVIEW",
        "domain_shift": "HIGH_SHIFT",
        "domain_shift_score": 3.2726,
        "coverage_ratio": 1.0,
        "pre_product_id": "S1A_IW_GRDH_1SDV_20201115_PRE",
        "post_product_id": "S1A_IW_GRDH_1SDV_20201127_POST",
        "pre_date": "2020-11-15T00:24:12Z",
        "post_date": "2020-11-27T00:24:13Z",
        "temporal_delta_days": 12,
        "model_version": "Phase 7.8 FloodCycloneSiameseResNet34",
        "checkpoint_sha256": "7124b81a6446e995c61dcba5cca971654f7924f70aaa470dd1ab17644f0e45ef",
        "prediction_timestamp": "2026-08-31T18:19:55.425518Z",
        "data_source": "Copernicus Sentinel-1 SAR + OpenStreetMap"
      },
      "geometry": {
        "type": "Polygon",
        "coordinates": [
          [
            [
              79.7649895,
              11.7486399
            ],
            [
              79.7651102,
              11.748638
            ],
            [
              79.7651062,
              11.7483925
            ],
            [
              79.7649854,
              11.7483944
            ],
            [
              79.7649895,
              11.7486399
            ]
          ]
        ]
      }
    },
    {
      "type": "Feature",
      "id": "osm_way_838475067",
      "properties": {
        "osm_id": 838475067,
        "osm_type": "way",
        "building": "yes",
        "damage_prediction": "DAMAGED",
        "confidence": 0.5726,
        "prediction_margin": 0.3547,
        "entropy": 0.9787,
        "prob_intact": 0.2179,
        "prob_damaged": 0.5726,
        "prob_destroyed": 0.2095,
        "decision_status": "REVIEW",
        "review_status": "REVIEW",
        "domain_shift": "HIGH_SHIFT",
        "domain_shift_score": 3.2718,
        "coverage_ratio": 1.0,
        "pre_product_id": "S1A_IW_GRDH_1SDV_20201115_PRE",
        "post_product_id": "S1A_IW_GRDH_1SDV_20201127_POST",
        "pre_date": "2020-11-15T00:24:12Z",
        "post_date": "2020-11-27T00:24:13Z",
        "temporal_delta_days": 12,
        "model_version": "Phase 7.8 FloodCycloneSiameseResNet34",
        "checkpoint_sha256": "7124b81a6446e995c61dcba5cca971654f7924f70aaa470dd1ab17644f0e45ef",
        "prediction_timestamp": "2026-08-31T18:19:55.425543Z",
        "data_source": "Copernicus Sentinel-1 SAR + OpenStreetMap"
      },
      "geometry": {
        "type": "Polygon",
        "coordinates": [
          [
            [
              79.7661871,
              11.7476617
            ],
            [
              79.7662647,
              11.7476586
            ],
            [
              79.766258,
              11.7474984
            ],
            [
              79.7661804,
              11.7475015
            ],
            [
              79.7661871,
              11.7476617
            ]
          ]
        ]
      }
    },
    {
      "type": "Feature",
      "id": "osm_way_1067561608",
      "properties": {
        "osm_id": 1067561608,
        "osm_type": "way",
        "building": "yes",
        "source": "microsoft/BuildingFootprints",
        "damage_prediction": "DAMAGED",
        "confidence": 0.5726,
        "prediction_margin": 0.3546,
        "entropy": 0.9788,
        "prob_intact": 0.218,
        "prob_damaged": 0.5726,
        "prob_destroyed": 0.2095,
        "decision_status": "REVIEW",
        "review_status": "REVIEW",
        "domain_shift": "HIGH_SHIFT",
        "domain_shift_score": 3.2728,
        "coverage_ratio": 1.0,
        "pre_product_id": "S1A_IW_GRDH_1SDV_20201115_PRE",
        "post_product_id": "S1A_IW_GRDH_1SDV_20201127_POST",
        "pre_date": "2020-11-15T00:24:12Z",
        "post_date": "2020-11-27T00:24:13Z",
        "temporal_delta_days": 12,
        "model_version": "Phase 7.8 FloodCycloneSiameseResNet34",
        "checkpoint_sha256": "7124b81a6446e995c61dcba5cca971654f7924f70aaa470dd1ab17644f0e45ef",
        "prediction_timestamp": "2026-08-31T18:19:55.425569Z",
        "data_source": "Copernicus Sentinel-1 SAR + OpenStreetMap"
      },
      "geometry": {
        "type": "Polygon",
        "coordinates": [
          [
            [
              79.7685159,
              11.7528494
            ],
            [
              79.768784,
              11.7530872
            ],
            [
              79.768686,
              11.7531931
            ],
            [
              79.7684179,
              11.7529553
            ],
            [
              79.7685159,
              11.7528494
            ]
          ]
        ]
      }
    },
    {
      "type": "Feature",
      "id": "osm_way_1067561609",
      "properties": {
        "osm_id": 1067561609,
        "osm_type": "way",
        "building": "yes",
        "source": "microsoft/BuildingFootprints",
        "damage_prediction": "DAMAGED",
        "confidence": 0.5727,
        "prediction_margin": 0.3548,
        "entropy": 0.9786,
        "prob_intact": 0.2179,
        "prob_damaged": 0.5727,
        "prob_destroyed": 0.2093,
        "decision_status": "REVIEW",
        "review_status": "REVIEW",
        "domain_shift": "HIGH_SHIFT",
        "domain_shift_score": 3.2724,
        "coverage_ratio": 1.0,
        "pre_product_id": "S1A_IW_GRDH_1SDV_20201115_PRE",
        "post_product_id": "S1A_IW_GRDH_1SDV_20201127_POST",
        "pre_date": "2020-11-15T00:24:12Z",
        "post_date": "2020-11-27T00:24:13Z",
        "temporal_delta_days": 12,
        "model_version": "Phase 7.8 FloodCycloneSiameseResNet34",
        "checkpoint_sha256": "7124b81a6446e995c61dcba5cca971654f7924f70aaa470dd1ab17644f0e45ef",
        "prediction_timestamp": "2026-08-31T18:19:55.425594Z",
        "data_source": "Copernicus Sentinel-1 SAR + OpenStreetMap"
      },
      "geometry": {
        "type": "Polygon",
        "coordinates": [
          [
            [
              79.7670476,
              11.7520365
            ],
            [
              79.7668196,
              11.7520376
            ],
            [
              79.7668198,
              11.7520796
            ],
            [
              79.7667799,
              11.7520798
            ],
            [
              79.7667646,
              11.7520353
            ],
            [
              79.7667954,
              11.7520252
            ],
            [
              79.766795,
              11.7519458
            ],
            [
              79.7667601,
              11.751946
            ],
            [
              79.7667599,
              11.7519014
            ],
            [
              79.7668551,
              11.7519009
            ],
            [
              79.766866,
              11.7519324
            ],
            [
              79.7669184,
              11.7519321
            ],
            [
              79.7670073,
              11.7519028
            ],
            [
              79.7670335,
              11.7519026
            ],
            [
              79.7670331,
              11.7518186
            ],
            [
              79.7671232,
              11.7518182
            ],
            [
              79.7671379,
              11.7518608
            ],
            [
              79.7671381,
              11.7518995
            ],
            [
              79.7671913,
              11.7518992
            ],
            [
              79.7671997,
              11.7519234
            ],
            [
              79.7672406,
              11.7519098
            ],
            [
              79.7672509,
              11.7519399
            ],
            [
              79.7672513,
              11.7520118
            ],
            [
              79.7672498,
              11.7520118
            ],
            [
              79.7671549,
              11.7520431
            ],
            [
              79.7671554,
              11.7521305
            ],
            [
              79.7670481,
              11.752131
            ],
            [
              79.7670476,
              11.7520365
            ]
          ]
        ]
      }
    }
  ]
}